{
    "links": {
        "self": "http://www.neowsapp.com/rest/v1/neo/3426672?api_key=iIulBulltgU6a56xZRHN4H3l9WmuAYTsLGpBGhQ2"
    },
    "id": "3426672",
    "neo_reference_id": "3426672",
    "name": "(2008 RK1)",
    "designation": "2008 RK1",
    "nasa_jpl_url": "http://ssd.jpl.nasa.gov/sbdb.cgi?sstr=3426672",
    "absolute_magnitude_h": 22.2,
    "estimated_diameter": {
        "kilometers": {
            "estimated_diameter_min": 0.096506147,
            "estimated_diameter_max": 0.2157943048
        },
        "meters": {
            "estimated_diameter_min": 96.5061469579,
            "estimated_diameter_max": 215.7943048444
        },
        "miles": {
            "estimated_diameter_min": 0.059966121,
            "estimated_diameter_max": 0.134088323
        },
        "feet": {
            "estimated_diameter_min": 316.6212271853,
            "estimated_diameter_max": 707.9865871058
        }
    },
    "is_potentially_hazardous_asteroid": false,
    "close_approach_data": [
        {
            "close_approach_date": "1994-09-01",
            "close_approach_date_full": "1994-Sep-01 04:08",
            "epoch_date_close_approach": 778392480000,
            "relative_velocity": {
                "kilometers_per_second": "5.7245796639",
                "kilometers_per_hour": "20608.4867900583",
                "miles_per_hour": "12805.3122501893"
            },
            "miss_distance": {
                "astronomical": "0.1966497472",
                "lunar": "76.4967516608",
                "kilometers": "29418383.317158464",
                "miles": "18279735.7506722432"
            },
            "orbiting_body": "Earth"
        },
        {
            "close_approach_date": "2008-08-28",
            "close_approach_date_full": "2008-Aug-28 23:22",
            "epoch_date_close_approach": 1219965720000,
            "relative_velocity": {
                "kilometers_per_second": "6.0838198954",
                "kilometers_per_hour": "21901.7516234317",
                "miles_per_hour": "13608.8967240151"
            },
            "miss_distance": {
                "astronomical": "0.2196786384",
                "lunar": "85.4549903376",
                "kilometers": "32863456.389140208",
                "miles": "20420404.8934545504"
            },
            "orbiting_body": "Earth"
        },
        {
            "close_approach_date": "2015-09-12",
            "close_approach_date_full": "2015-Sep-12 17:36",
            "epoch_date_close_approach": 1442079360000,
            "relative_velocity": {
                "kilometers_per_second": "3.8795354994",
                "kilometers_per_hour": "13966.3277979598",
                "miles_per_hour": "8678.1329586823"
            },
            "miss_distance": {
                "astronomical": "1.0793662785",
                "lunar": "419.8734823365",
                "kilometers": "161470896.213426795",
                "miles": "100333362.387187971"
            },
            "orbiting_body": "Juptr"
        },
        {
            "close_approach_date": "2182-01-28",
            "close_approach_date_full": "2182-Jan-28 19:22",
            "epoch_date_close_approach": 6692527320000,
            "relative_velocity": {
                "kilometers_per_second": "3.7312583232",
                "kilometers_per_hour": "13432.5299634003",
                "miles_per_hour": "8346.4517430917"
            },
            "miss_distance": {
                "astronomical": "1.064216514",
                "lunar": "413.980223946",
                "kilometers": "159204523.71322518",
                "miles": "98925103.817380284"
            },
            "orbiting_body": "Juptr"
        }
    ],
    "orbital_data": {
        "orbit_id": "19",
        "orbit_determination_date": "2017-04-06 09:03:01",
        "first_observation_date": "2008-09-04",
        "last_observation_date": "2008-10-06",
        "data_arc_in_days": 32,
        "observations_used": 49,
        "orbit_uncertainty": "6",
        "minimum_orbit_intersection": ".163608",
        "jupiter_tisserand_invariant": "3.058",
        "epoch_osculation": "2459000.5",
        "eccentricity": ".5783624676504329",
        "semi_major_axis": "2.775672552179901",
        "inclination": "6.652006686106347",
        "ascending_node_longitude": "350.2746394665915",
        "orbital_period": "1689.082152765921",
        "perihelion_distance": "1.170327725511559",
        "perihelion_argument": "349.190704934388",
        "aphelion_distance": "4.381017378848242",
        "perihelion_time": "2459815.183415999416",
        "mean_anomaly": "186.3636678183323",
        "mean_motion": ".2131335053244684",
        "equinox": "J2000",
        "orbit_class": {
            "orbit_class_type": "AMO",
            "orbit_class_description": "Near-Earth asteroid orbits similar to that of 1221 Amor",
            "orbit_class_range": "1.017 AU < q (perihelion) < 1.3 AU"
        }
    },
    "is_sentry_object": false
}